PCSAT
1 26931U 01043C   16 69.90973087  .00000037  00000-0  46000-4 0  9998
2 26931  67.0507 209.0320 0007509 269.5317  90.4924 14.30391693753943
NOAA-15
1 23455U 94089A   16 70.50903433  .00000019  00000-0  32731-4 0  9990
2 23455  98.7280 151.1818 0010138  43.9032 316.2945 14.14070818 93303
NOAA-18
1 25338U 98030A   16 70.55017965  .00000064  00000-0  45834-4 0  9991
2 25338  98.7832  74.5037 0011686 110.6054 249.6380 14.25708772926939
NOAA-19
1 27453U 02032A   16 70.54774406  .00000068  00000-0  46785-4 0  9997
2 27453  98.3730  48.7291 0012769 116.0054 244.2443 14.24931045712732
ISS
1 25544U 98067A   16 70.60802946  .00010558  00000-0  16731-3 0  9999
2 25544  51.6423 189.6478 0001642 260.2328 233.0609 15.53995147989640

1 00000U          00  0.00000000  .00000000  00000-0  00000-0 0    03
2 00000   0.0000   0.0000 0000000   0.0000   0.0000  0.00000000    02

1 00000U          00  0.00000000  .00000000  00000-0  00000-0 0    03
2 00000   0.0000   0.0000 0000000   0.0000   0.0000  0.00000000    02

1 00000U          00  0.00000000  .00000000  00000-0  00000-0 0    03
2 00000   0.0000   0.0000 0000000   0.0000   0.0000  0.00000000    02

1 00000U          00  0.00000000  .00000000  00000-0  00000-0 0    03
2 00000   0.0000   0.0000 0000000   0.0000   0.0000  0.00000000    02

1 00000U          00  0.00000000  .00000000  00000-0  00000-0 0    03
2 00000   0.0000   0.0000 0000000   0.0000   0.0000  0.00000000    02

1 00000U          00  0.00000000  .00000000  00000-0  00000-0 0    03
2 00000   0.0000   0.0000 0000000   0.0000   0.0000  0.00000000    02

1 00000U          00  0.00000000  .00000000  00000-0  00000-0 0    03
2 00000   0.0000   0.0000 0000000   0.0000   0.0000  0.00000000    02

1 00000U          00  0.00000000  .00000000  00000-0  00000-0 0    03
2 00000   0.0000   0.0000 0000000   0.0000   0.0000  0.00000000    02

1 00000U          00  0.00000000  .00000000  00000-0  00000-0 0    03
2 00000   0.0000   0.0000 0000000   0.0000   0.0000  0.00000000    02

1 00000U          00  0.00000000  .00000000  00000-0  00000-0 0    03
2 00000   0.0000   0.0000 0000000   0.0000   0.0000  0.00000000    02

1 00000U          00  0.00000000  .00000000  00000-0  00000-0 0    03
2 00000   0.0000   0.0000 0000000   0.0000   0.0000  0.00000000    02

1 00000U          00  0.00000000  .00000000  00000-0  00000-0 0    03
2 00000   0.0000   0.0000 0000000   0.0000   0.0000  0.00000000    02

1 00000U          00  0.00000000  .00000000  00000-0  00000-0 0    03
2 00000   0.0000   0.0000 0000000   0.0000   0.0000  0.00000000    02

1 00000U          00  0.00000000  .00000000  00000-0  00000-0 0    03
2 00000   0.0000   0.0000 0000000   0.0000   0.0000  0.00000000    02

1 00000U          00  0.00000000  .00000000  00000-0  00000-0 0    03
2 00000   0.0000   0.0000 0000000   0.0000   0.0000  0.00000000    02

1 00000U          00  0.00000000  .00000000  00000-0  00000-0 0    03
2 00000   0.0000   0.0000 0000000   0.0000   0.0000  0.00000000    02

1 00000U          00  0.00000000  .00000000  00000-0  00000-0 0    03
2 00000   0.0000   0.0000 0000000   0.0000   0.0000  0.00000000    02

1 00000U          00  0.00000000  .00000000  00000-0  00000-0 0    03
2 00000   0.0000   0.0000 0000000   0.0000   0.0000  0.00000000    02

1 00000U          00  0.00000000  .00000000  00000-0  00000-0 0    03
2 00000   0.0000   0.0000 0000000   0.0000   0.0000  0.00000000    02
